{"type": "FeatureCollection", "features": [ {"type": "Feature", "properties": {"norad_id": 52912, "name": "GAOFEN-12 03", "group": "resource", "lat": 15.468127100506354, "lon": -118.81636795818297, "alt_km": 630.1852752648956, "timestamp": "2025-12-22T05:49:03.140182+00:00", "meta": {"OBJECT_NAME": "GAOFEN-12 03", "OBJECT_ID": "2022-069A", "EPOCH": "2025-12-21T20:00:32.628672", "MEAN_MOTION": 14.7962678, "ECCENTRICITY": 0.0001929, "INCLINATION": 97.8487, "RA_OF_ASC_NODE": 242.9721, "ARG_OF_PERICENTER": 51.1438, "MEAN_ANOMALY": 308.9946, "EPHEMERIS_TYPE": 0, "CLASSIFICATION_TYPE": "U", "NORAD_CAT_ID": 52912, "ELEMENT_SET_NO": 999, "REV_AT_EPOCH": 18838, "BSTAR": 6.5869e-05, "MEAN_MOTION_DOT": 4.43e-06, "MEAN_MOTION_DDOT": 0}, "tle": {"line1": "1 52912U 22069A   25355.83371098  .00000443  00000+0  65869-4 0  9995", "line2": "2 52912  97.8487 242.9721 0001929  51.1438 308.9946 14.79626780188381"}}, "geometry": {"type": "Point", "coordinates": [-118.81636795818297, 15.468127100506354]}}, {"type": "Feature", "properties": {"norad_id": 54754, "name": "SWOT", "group": "resource", "lat": 18.328381510019835, "lon": 89.98706564837885, "alt_km": 893.2427755709787, "timestamp": "2025-12-22T05:49:03.140193+00:00", "meta": {"OBJECT_NAME": "SWOT", "OBJECT_ID": "2022-173A", "EPOCH": "2025-12-21T18:45:40.385088", "MEAN_MOTION": 14.00168109, "ECCENTRICITY": 3.6e-05, "INCLINATION": 77.6109, "RA_OF_ASC_NODE": 274.7843, "ARG_OF_PERICENTER": 86.8207, "MEAN_ANOMALY": 273.2986, "EPHEMERIS_TYPE": 0, "CLASSIFICATION_TYPE": "U", "NORAD_CAT_ID": 54754, "ELEMENT_SET_NO": 999, "REV_AT_EPOCH": 15432, "BSTAR": 6.4006e-06, "MEAN_MOTION_DOT": 7e-08, "MEAN_MOTION_DDOT": 0}, "tle": {"line1": "1 54754U 22173A   25355.78171742  .00000007  00000+0  64006-5 0  9994", "line2": "2 54754  77.6109 274.7843 0000360  86.8207 273.2986 14.00168109154324"}}, "geometry": {"type": "Point", "coordinates": [89.98706564837885, 18.328381510019835]}}, {"type": "Feature", "properties": {"norad_id": 57654, "name": "GAOFEN-12 04", "group": "resource", "lat": -8.646940534360208, "lon": 90.64367135784128, "alt_km": 634.5865483056632, "timestamp": "2025-12-22T05:49:03.140203+00:00", "meta": {"OBJECT_NAME": "GAOFEN-12 04", "OBJECT_ID": "2023-123A", "EPOCH": "2025-12-21T20:51:12.174624", "MEAN_MOTION": 14.79724156, "ECCENTRICITY": 0.0001211, "INCLINATION": 97.9128, "RA_OF_ASC_NODE": 271.4878, "ARG_OF_PERICENTER": 77.7077, "MEAN_ANOMALY": 282.427, "EPHEMERIS_TYPE": 0, "CLASSIFICATION_TYPE": "U", "NORAD_CAT_ID": 57654, "ELEMENT_SET_NO": 999, "REV_AT_EPOCH": 12640, "BSTAR": 0.000149, "MEAN_MOTION_DOT": 1.068e-05, "MEAN_MOTION_DDOT": 0}, "tle": {"line1": "1 57654U 23123A   25355.86889091  .00001068  00000+0  14900-3 0  9998", "line2": "2 57654  97.9128 271.4878 0001211  77.7077 282.4270 14.79724156126406"}}, "geometry": {"type": "Point", "coordinates": [90.64367135784128, -8.646940534360208]}}, {"type": "Feature", "properties": {"norad_id": 59065, "name": "PARS 1", "group": "resource", "lat": 18.53049650181889, "lon": 149.89683472209217, "alt_km": 446.87678930861694, "timestamp": "2025-12-22T05:49:03.140214+00:00", "meta": {"OBJECT_NAME": "PARS 1", "OBJECT_ID": "2024-039Q", "EPOCH": "2025-12-21T21:19:47.789184", "MEAN_MOTION": 15.4116698, "ECCENTRICITY": 0.0011929, "INCLINATION": 97.4646, "RA_OF_ASC_NODE": 327.0166, "ARG_OF_PERICENTER": 44.4135, "MEAN_ANOMALY": 315.8066, "EPHEMERIS_TYPE": 0, "CLASSIFICATION_TYPE": "U", "NORAD_CAT_ID": 59065, "ELEMENT_SET_NO": 999, "REV_AT_EPOCH": 10129, "BSTAR": 0.0002518, "MEAN_MOTION_DOT": 0.0001038, "MEAN_MOTION_DDOT": 0}, "tle": {"line1": "1 59065U 24039Q   25355.88874756  .00010380  00000+0  25180-3 0  9996", "line2": "2 59065  97.4646 327.0166 0011929  44.4135 315.8066 15.41166980101294"}}, "geometry": {"type": "Point", "coordinates": [149.89683472209217, 18.53049650181889]}}, {"type": "Feature", "properties": {"norad_id": 59371, "name": "RESURS-P 4", "group": "resource", "lat": -3.105503039525267, "lon": -57.225720559905746, "alt_km": 472.64926379400276, "timestamp": "2025-12-22T05:49:03.140224+00:00", "meta": {"OBJECT_NAME": "RESURS-P 4", "OBJECT_ID": "2024-061A", "EPOCH": "2025-12-21T20:25:35.518656", "MEAN_MOTION": 15.32151781, "ECCENTRICITY": 9.42e-05, "INCLINATION": 97.256, "RA_OF_ASC_NODE": 301.9948, "ARG_OF_PERICENTER": 66.2141, "MEAN_ANOMALY": 293.9199, "EPHEMERIS_TYPE": 0, "CLASSIFICATION_TYPE": "U", "NORAD_CAT_ID": 59371, "ELEMENT_SET_NO": 999, "REV_AT_EPOCH": 9660, "BSTAR": 0.00010511, "MEAN_MOTION_DOT": 3.187e-05, "MEAN_MOTION_DDOT": 0}, "tle": {"line1": "1 59371U 24061A   25355.85110554  .00003187  00000+0  10511-3 0  9996", "line2": "2 59371  97.2560 301.9948 0000942  66.2141 293.9199 15.32151781 96602"}}, "geometry": {"type": "Point", "coordinates": [-57.225720559905746, -3.105503039525267]}}, {"type": "Feature", "properties": {"norad_id": 59625, "name": "LEGION 1", "group": "resource", "lat": 48.87870148230982, "lon": 62.09638772743674, "alt_km": 513.646209993226, "timestamp": "2025-12-22T05:49:03.140234+00:00", "meta": {"OBJECT_NAME": "LEGION 1", "OBJECT_ID": "2024-081A", "EPOCH": "2025-12-21T18:30:55.624032", "MEAN_MOTION": 15.16560142, "ECCENTRICITY": 0.000363, "INCLINATION": 97.5204, "RA_OF_ASC_NODE": 70.3331, "ARG_OF_PERICENTER": 275.9944, "MEAN_ANOMALY": 84.0875, "EPHEMERIS_TYPE": 0, "CLASSIFICATION_TYPE": "U", "NORAD_CAT_ID": 59625, "ELEMENT_SET_NO": 999, "REV_AT_EPOCH": 9064, "BSTAR": 0.00021588, "MEAN_MOTION_DOT": 4.146e-05, "MEAN_MOTION_DDOT": 0}, "tle": {"line1": "1 59625U 24081A   25355.77147713  .00004146  00000+0  21588-3 0  9990", "line2": "2 59625  97.5204  70.3331 0003630 275.9944  84.0875 15.16560142 90647"}}, "geometry": {"type": "Point", "coordinates": [62.09638772743674, 48.87870148230982]}}, {"type": "Feature", "properties": {"norad_id": 59626, "name": "LEGION 2", "group": "resource", "lat": -49.182088621074136, "lon": -117.91034583600278, "alt_km": 519.5227164742, "timestamp": "2025-12-22T05:49:03.140245+00:00", "meta": {"OBJECT_NAME": "LEGION 2", "OBJECT_ID": "2024-081B", "EPOCH": "2025-12-21T19:18:22.760640", "MEAN_MOTION": 15.16574415, "ECCENTRICITY": 0.0005657, "INCLINATION": 97.5207, "RA_OF_ASC_NODE": 70.4537, "ARG_OF_PERICENTER": 254.2495, "MEAN_ANOMALY": 105.8115, "EPHEMERIS_TYPE": 0, "CLASSIFICATION_TYPE": "U", "NORAD_CAT_ID": 59626, "ELEMENT_SET_NO": 999, "REV_AT_EPOCH": 9065, "BSTAR": 0.00019808, "MEAN_MOTION_DOT": 3.8e-05, "MEAN_MOTION_DDOT": 0}, "tle": {"line1": "1 59626U 24081B   25355.80443010  .00003800  00000+0  19808-3 0  9992", "line2": "2 59626  97.5207  70.4537 0005657 254.2495 105.8115 15.16574415 90650"}}, "geometry": {"type": "Point", "coordinates": [-117.91034583600278, -49.182088621074136]}}, {"type": "Feature", "properties": {"norad_id": 60182, "name": "ALOS-4 (DAICHI-4)", "group": "resource", "lat": 59.94939067059797, "lon": 77.02581457399688, "alt_km": 624.3680955504133, "timestamp": "2025-12-22T05:49:03.140255+00:00", "meta": {"OBJECT_NAME": "ALOS-4 (DAICHI-4)", "OBJECT_ID": "2024-123A", "EPOCH": "2025-12-20T19:27:23.067360", "MEAN_MOTION": 14.79476697, "ECCENTRICITY": 0.00013881, "INCLINATION": 97.9224, "RA_OF_ASC_NODE": 89.5428, "ARG_OF_PERICENTER": 101.339, "MEAN_ANOMALY": 258.7977, "EPHEMERIS_TYPE": 0, "CLASSIFICATION_TYPE": "U", "NORAD_CAT_ID": 60182, "ELEMENT_SET_NO": 999, "REV_AT_EPOCH": 7950, "BSTAR": 0.00018374076, "MEAN_MOTION_DOT": 1.321e-05, "MEAN_MOTION_DDOT": 0}, "tle": {"line1": "1 60182U 24123A   25354.81068365  .00001321  00000+0  18374-3 0  9997", "line2": "2 60182  97.9224  89.5428 0001388 101.3390 258.7977 14.79476697 79501"}}, "geometry": {"type": "Point", "coordinates": [77.02581457399688, 59.94939067059797]}}, {"type": "Feature", "properties": {"norad_id": 60452, "name": "LEGION 3", "group": "resource", "lat": -13.878658305037852, "lon": -115.12749775437678, "alt_km": 520.0728326594781, "timestamp": "2025-12-22T05:49:03.140266+00:00", "meta": {"OBJECT_NAME": "LEGION 3", "OBJECT_ID": "2024-146A", "EPOCH": "2025-12-21T18:50:00.201984", "MEAN_MOTION": 15.15846747, "ECCENTRICITY": 0.0015699, "INCLINATION": 45.0013, "RA_OF_ASC_NODE": 261.6418, "ARG_OF_PERICENTER": 247.2116, "MEAN_ANOMALY": 112.7104, "EPHEMERIS_TYPE": 0, "CLASSIFICATION_TYPE": "U", "NORAD_CAT_ID": 60452, "ELEMENT_SET_NO": 999, "REV_AT_EPOCH": 7510, "BSTAR": 0.00019819, "MEAN_MOTION_DOT": 3.6e-05, "MEAN_MOTION_DDOT": 0}, "tle": {"line1": "1 60452U 24146A   25355.78472456  .00003600  00000+0  19819-3 0  9996", "line2": "2 60452  45.0013 261.6418 0015699 247.2116 112.7104 15.15846747 75100"}}, "geometry": {"type": "Point", "coordinates": [-115.12749775437678, -13.878658305037852]}}, {"type": "Feature", "properties": {"norad_id": 60453, "name": "LEGION 4", "group": "resource", "lat": -14.837337837548798, "lon": -24.385985385690933, "alt_km": 514.523371534242, "timestamp": "2025-12-22T05:49:03.140276+00:00", "meta": {"OBJECT_NAME": "LEGION 4", "OBJECT_ID": "2024-146B", "EPOCH": "2025-12-21T17:15:29.275776", "MEAN_MOTION": 15.15910271, "ECCENTRICITY": 0.000855, "INCLINATION": 45.0393, "RA_OF_ASC_NODE": 353.7704, "ARG_OF_PERICENTER": 359.8752, "MEAN_ANOMALY": 0.2123, "EPHEMERIS_TYPE": 0, "CLASSIFICATION_TYPE": "U", "NORAD_CAT_ID": 60453, "ELEMENT_SET_NO": 999, "REV_AT_EPOCH": 7394, "BSTAR": 0.00024034, "MEAN_MOTION_DOT": 4.423e-05, "MEAN_MOTION_DDOT": 0}, "tle": {"line1": "1 60453U 24146B   25355.71908884  .00004423  00000+0  24034-3 0  9998", "line2": "2 60453  45.0393 353.7704 0008550 359.8752   0.2123 15.15910271 73943"}}, "geometry": {"type": "Point", "coordinates": [-24.385985385690933, -14.837337837548798]}}]}